STARLINK-31281          
1 59077U 24041D   26156.36299921  .00000481  00000+0  27001-4 0  9996
2 59077  43.0016 175.2649 0000976 274.5094  85.5646 15.27579121127735
STARLINK-31274          
1 59078U 24041E   26156.32716661  .00000973  00000+0  44886-4 0  9994
2 59078  42.9988 175.8454 0001606 270.4231  89.6437 15.27578763127678
STARLINK-31257          
1 59079U 24041F   26156.31047524  .00004213  00000+0  16187-3 0  9992
2 59079  43.0017 175.7264 0005068 187.6297 172.4479 15.27719179127674
STARLINK-31292          
1 59081U 24041H   26152.18212392  .00001505  00000+0  64230-4 0  9997
2 59081  43.0019 198.9246 0001213 267.8326  92.2386 15.27574070127033
STARLINK-31286          
1 59082U 24041J   26152.18597664  .00001122  00000+0  50310-4 0  9995
2 59082  43.0021 198.9558 0002218 273.8863  86.1735 15.27574165127127
STARLINK-31252          
1 59083U 24041K   26157.08383025 -.00000250  00000+0  44021-6 0  9990
2 59083  43.0012  88.3117 0001270 262.2549  97.8158 15.27576406128793
STARLINK-31261          
1 59084U 24041L   26156.33359155  .00000787  00000+0  38097-4 0  9993
2 59084  42.9998 175.8925 0000989 272.9449  87.1290 15.27580878127726
STARLINK-31290          
1 59085U 24041M   26156.28927968 -.00001127  00000+0 -31428-4 0  9993
2 59085  43.0029 161.7182 0002120 269.2999  90.7610 15.27569226127978
STARLINK-31279          
1 59086U 24041N   26156.34772489  .00001049  00000+0  47625-4 0  9994
2 59086  43.0005 175.9976 0001157 275.5960  84.4760 15.27581959127724
STARLINK-31266          
1 59087U 24041P   26152.25521922  .00001594  00000+0  67463-4 0  9992
2 59087  43.0030 198.6140 0001571 275.0920  84.9752 15.27575188127104
STARLINK-31313          
1 59088U 24041Q   26152.19240865  .00004331  00000+0  16683-3 0  9999
2 59088  43.0047 199.0029 0002281 270.6707  89.3883 15.27575083127048
STARLINK-31307          
1 59089U 24041R   26152.18854838  .00000590  00000+0  30983-4 0  9993
2 59089  43.0022 198.9753 0001361 264.9416  95.1281 15.27577913127091
STARLINK-31316          
1 59090U 24041S   26156.63825982  .00000332  00000+0  21607-4 0  9994
2 59090  43.0041 127.2016 0001490 271.3643  88.7038 15.27578120128201
STARLINK-31310          
1 59092U 24041U   26156.35415246  .00000088  00000+0  12707-4 0  9992
2 59092  43.0000 176.0470 0000768 273.0467  87.0297 15.27576761127672
STARLINK-31343          
1 59093U 24041V   26156.34129044 -.00014907  00000+0 -53393-3 0  9992
2 59093  43.0017 175.9573 0001589 283.8406  76.2269 15.27538500127721
STARLINK-31295          
1 59095U 24041X   26152.46165765  .00001787  00000+0  74468-4 0  9990
2 59095  43.0019 197.5751 0001476 274.6286  85.4397 15.27577984127084
STARLINK-31291          
1 59096U 24041Y   26156.31688965  .00002142  00000+0  87329-4 0  9997
2 59096  43.0060 175.7750 0001315 281.3521  78.7183 15.27583438127671
STARLINK-31312          
1 59152U 24044A   26157.04611111  .00000821  00000+0  39374-4 0  9992
2 59152  43.0070 277.3433 0001610 276.3890  83.6778 15.27582393127699
STARLINK-31308          
1 59153U 24044B   26157.07005872  .00001935  00000+0  79787-4 0  9996
2 59153  43.0047 281.0715 0001244 262.8681  97.2029 15.27587809127664
STARLINK-31270          
1 59154U 24044C   26156.95512049  .00003885  00000+0  15061-3 0  9992
2 59154  43.0030 328.6401 0001493 290.8304  69.2388 15.27584053127098
STARLINK-31341          
1 59155U 24044D   26156.96877150  .00001360  00000+0  58939-4 0  9999
2 59155  43.0013 332.1874 0000894 268.3852  91.6897 15.27584942127020
STARLINK-31338          
1 59156U 24044E   26156.63800929  .00000311  00000+0  20847-4 0  9996
2 59156  43.0031 334.0025 0002553 267.5570  92.4989 15.27576304126979
STARLINK-31334          
1 59157U 24044F   26156.56489063  .00000991  00000+0  45544-4 0  9996
2 59157  43.0036 334.3140 0002926 243.7258 116.3293 15.27576950126969
STARLINK-31297          
1 59158U 24044G   26156.95897814  .00003204  00000+0  12594-3 0  9995
2 59158  43.0030 328.6660 0001091 279.5157  80.5572 15.27574060127091
STARLINK-31182          
1 59159U 24044H   26156.20247373  .00000991  00000+0  45530-4 0  9990
2 59159  43.0033 332.4496 0000717 271.4160  88.6610 15.27581605126986
STARLINK-31327          
1 59160U 24044J   26157.15770835  .00001075  00000+0  48591-4 0  9995
2 59160  43.0030 327.5797 0002550 265.0660  94.9901 15.27585493127124
STARLINK-31256          
1 59161U 24044K   26156.92556764  .00006546  00000+0  24714-3 0  9991
2 59161  43.0022 328.4118 0001699 262.4807  97.5852 15.27587253127096
STARLINK-31272          
1 59162U 24044L   26156.21018259 -.00000920  00000+0 -23910-4 0  9996
2 59162  43.0020 332.5095 0001566 276.4800  83.5873 15.27570584126957
STARLINK-31278          
1 59163U 24044M   26156.21403583  .00001173  00000+0  52128-4 0  9997
2 59163  43.0049 332.5383 0001281 279.7370  80.3337 15.27584626126953
STARLINK-31309          
1 59164U 24044N   26156.47943449 -.00001608  00000+0 -48945-4 0  9993
2 59164  43.0040 331.0859 0001815 256.5442 103.5208 15.27565757127021
