OBJECT_NAME,OBJECT_ID,EPOCH,MEAN_MOTION,ECCENTRICITY,INCLINATION,RA_OF_ASC_NODE,ARG_OF_PERICENTER,MEAN_ANOMALY,EPHEMERIS_TYPE,CLASSIFICATION_TYPE,NORAD_CAT_ID,ELEMENT_SET_NO,REV_AT_EPOCH,BSTAR,MEAN_MOTION_DOT,MEAN_MOTION_DDOT
STARLINK-31281,2024-041D,2026-06-05T08:42:43.131744,15.27579121,.0000976,43.0016,175.2649,274.5094,85.5646,0,U,59077,999,12773,.27001127E-4,.481E-5,0
STARLINK-31274,2024-041E,2026-06-05T07:51:07.195104,15.27578763,.00016063,42.9988,175.8454,270.4231,89.6437,0,U,59078,999,12767,.44885872E-4,.973E-5,0
STARLINK-31257,2024-041F,2026-06-05T07:27:05.060736,15.27719179,.00050685,43.0017,175.7264,187.6297,172.4479,0,U,59079,999,12767,.16187047E-3,.4213E-4,0
STARLINK-31292,2024-041H,2026-06-01T04:22:15.506688,15.27574070,.00012138,43.0019,198.9246,267.8326,92.2386,0,U,59081,999,12703,.64229696E-4,.1505E-4,0
STARLINK-31286,2024-041J,2026-06-01T04:27:48.381696,15.27574165,.00022185,43.0021,198.9558,273.8863,86.1735,0,U,59082,999,12712,.50309639E-4,.1122E-4,0
STARLINK-31252,2024-041K,2026-06-06T02:00:42.933600,15.27576406,.00012705,43.0012,88.3117,262.2549,97.8158,0,U,59083,999,12879,.440213E-6,-.25E-5,0
STARLINK-31261,2024-041L,2026-06-05T08:00:22.309920,15.27580878,.00009898,42.9998,175.8925,272.9449,87.1290,0,U,59084,999,12772,.38096881E-4,.787E-5,0
STARLINK-31290,2024-041M,2026-06-05T06:56:33.764352,15.27569226,.000212,43.0029,161.7182,269.2999,90.7610,0,U,59085,999,12797,-.31428E-4,-.1127E-4,0
STARLINK-31279,2024-041N,2026-06-05T08:20:43.430496,15.27581959,.00011573,43.0005,175.9976,275.5960,84.4760,0,U,59086,999,12772,.47625018E-4,.1049E-4,0
STARLINK-31266,2024-041P,2026-06-01T06:07:30.940608,15.27575188,.00015714,43.0030,198.6140,275.0920,84.9752,0,U,59087,999,12710,.67462994E-4,.1594E-4,0
STARLINK-31313,2024-041Q,2026-06-01T04:37:04.107360,15.27575083,.0002281,43.0047,199.0029,270.6707,89.3883,0,U,59088,999,12704,.16683443E-3,.4331E-4,0
STARLINK-31307,2024-041R,2026-06-01T04:31:30.580032,15.27577913,.0001361,43.0022,198.9753,264.9416,95.1281,0,U,59089,999,12709,.30983103E-4,.59E-5,0
STARLINK-31316,2024-041S,2026-06-05T15:19:05.648448,15.27578120,.00014905,43.0041,127.2016,271.3643,88.7038,0,U,59090,999,12820,.21606639E-4,.332E-5,0
STARLINK-31310,2024-041U,2026-06-05T08:29:58.772544,15.27576761,.00007684,43.0000,176.0470,273.0467,87.0297,0,U,59092,999,12767,.12706635E-4,.88E-6,0
STARLINK-31343,2024-041V,2026-06-05T08:11:27.494016,15.27538500,.00015892,43.0017,175.9573,283.8406,76.2269,0,U,59093,999,12772,-.5339311E-3,-.14907E-3,0
STARLINK-31295,2024-041X,2026-06-01T11:04:47.220960,15.27577984,.00014761,43.0019,197.5751,274.6286,85.4397,0,U,59095,999,12708,.7446808E-4,.1787E-4,0
STARLINK-31291,2024-041Y,2026-06-05T07:36:19.265760,15.27583438,.00013151,43.0060,175.7750,281.3521,78.7183,0,U,59096,999,12767,.87329224E-4,.2142E-4,0
STARLINK-31312,2024-044A,2026-06-06T01:06:23.999904,15.27582393,.00016103,43.0070,277.3433,276.3890,83.6778,0,U,59152,999,12769,.39373661E-4,.821E-5,0
STARLINK-31308,2024-044B,2026-06-06T01:40:53.073408,15.27587809,.00012441,43.0047,281.0715,262.8681,97.2029,0,U,59153,999,12766,.79786732E-4,.1935E-4,0
STARLINK-31270,2024-044C,2026-06-05T22:55:22.410336,15.27584053,.00014933,43.0030,328.6401,290.8304,69.2388,0,U,59154,999,12709,.1506077E-3,.3885E-4,0
STARLINK-31341,2024-044D,2026-06-05T23:15:01.857600,15.27584942,.00008946,43.0013,332.1874,268.3852,91.6897,0,U,59155,999,12702,.58939154E-4,.136E-4,0
STARLINK-31338,2024-044E,2026-06-05T15:18:44.002656,15.27576304,.00025536,43.0031,334.0025,267.5570,92.4989,0,U,59156,999,12697,.20846817E-4,.311E-5,0
STARLINK-31334,2024-044F,2026-06-05T13:33:26.550432,15.27576950,.00029269,43.0036,334.3140,243.7258,116.3293,0,U,59157,999,12696,.45543527E-4,.991E-5,0
STARLINK-31297,2024-044G,2026-06-05T23:00:55.711296,15.27574060,.00010913,43.0030,328.6660,279.5157,80.5572,0,U,59158,999,12709,.12593512E-3,.3204E-4,0
STARLINK-31182,2024-044H,2026-06-05T04:51:33.730272,15.27581605,.0000717,43.0033,332.4496,271.4160,88.6610,0,U,59159,999,12698,.4553E-4,.991E-5,0
STARLINK-31327,2024-044J,2026-06-06T03:47:06.001440,15.27585493,.00025507,43.0030,327.5797,265.0660,94.9901,0,U,59160,999,12712,.48590683E-4,.1075E-4,0
STARLINK-31256,2024-044K,2026-06-05T22:12:49.044096,15.27587253,.00016993,43.0022,328.4118,262.4807,97.5852,0,U,59161,999,12709,.24713903E-3,.6546E-4,0
STARLINK-31272,2024-044L,2026-06-05T05:02:39.775776,15.27570584,.0001566,43.0020,332.5095,276.4800,83.5873,0,U,59162,999,12695,-.2391E-4,-.92E-5,0
STARLINK-31278,2024-044M,2026-06-05T05:08:12.695712,15.27584626,.0001281,43.0049,332.5383,279.7370,80.3337,0,U,59163,999,12695,.52128E-4,.1173E-4,0
STARLINK-31309,2024-044N,2026-06-05T11:30:23.139936,15.27565757,.0001815,43.0040,331.0859,256.5442,103.5208,0,U,59164,999,12702,-.48945257E-4,-.1608E-4,0
